IRIDIUM 119             
1 42959U 17061E   25293.26253102 -.00000035  00000+0 -19455-4 0  9993
2 42959  86.3945 125.5747 0002245  85.9965 274.1488 14.34217776420420
IRIDIUM 107             
1 42960U 17061F   25293.07225322  .00000109  00000+0  31805-4 0  9990
2 42960  86.3942 125.6743 0002309  76.6618 283.4835 14.34218267420402
IRIDIUM 132             
1 42961U 17061G   25293.07859494  .00000133  00000+0  40510-4 0  9994
2 42961  86.3941 125.6528 0002104  84.0768 276.0668 14.34218663420407
IRIDIUM 136             
1 42962U 17061H   25293.24984544 -.00000010  00000+0 -10761-4 0  9990
2 42962  86.3945 125.5865 0002126  84.8004 275.3435 14.34217807420447
IRIDIUM 139             
1 42963U 17061J   25293.25618801  .00000046  00000+0  91985-5 0  9997
2 42963  86.3943 125.6420 0002079  80.3482 279.7948 14.34217975420456
IRIDIUM 125             
1 42964U 17061K   25293.24350417  .00000177  00000+0  56003-4 0  9999
2 42964  86.3944 125.7040 0002564  79.6381 280.5104 14.34218657420468
IRIDIUM 135             
1 43070U 17083A   25293.28739372  .00000569  00000+0  19610-3 0  9994
2 43070  86.3956  62.2846 0001911  96.8478 263.2936 14.34221676409768
IRIDIUM 138             
1 43071U 17083B   25293.31276570  .00000515  00000+0  17687-3 0  9998
2 43071  86.3970  61.9321 0002501  94.7750 265.3732 14.34218474409753
